GLOBALSTAR M094         
1 39074U 13005C   25223.13053623 -.00000110  00000+0 -36675-4 0  9993
2 39074  51.9977  14.8304 0000959  79.1961 280.9014 12.62263135579319
GLOBALSTAR M096         
1 39075U 13005D   25223.22279565 -.00000100  00000+0  20861-4 0  9997
2 39075  52.0077  63.1066 0000951  60.8491 299.2471 12.62266170578245
GLOBALSTAR M078         
1 39076U 13005E   25223.03819725 -.00000023  00000+0  44970-3 0  9995
2 39076  51.9863 148.1052 0000782 332.8646  27.2180 12.62260401576843
GLOBALSTAR M095         
1 39077U 13005F   25223.22251408 -.00000090  00000+0  78862-4 0  9997
2 39077  51.9792 144.7103 0000802  14.0450 346.0438 12.62268452576728
GLOBALSTAR M087         
1 52888U 22064A   25223.15842098 -.00000078  00000+0  14106-3 0  9996
2 52888  51.9998 286.3341 0000348  95.0169 265.0738 12.62300840151987
